RADUGA-1 6 [-]          
1 26936U 01045A   17344.88917713 -.00000174  00000-0  00000-0 0  9992
2 26936  11.6521  37.3276 0015307 146.1832 217.6131  0.97745651 58203
